#aV2012  9 16  0  0  0.00000000     288 DD+AD WGS84 FIT  NGA
## 1706      0.00000000   300.00000000 56186 0.0000000000000
+   31     1  2  3  4  5  6  7  8  9 10 11 12 13 14 15 16 17
+         18 19 20 21 22 23 25 26 27 28 29 30 31 32  0  0  0
+          0  0  0  0  0  0  0  0  0  0  0  0  0  0  0  0  0
+          0  0  0  0  0  0  0  0  0  0  0  0  0  0  0  0  0
+          0  0  0  0  0  0  0  0  0  0  0  0  0  0  0  0  0
++         2  2  2  2  2  2  2  2  2  2  2  2  2  2  2  2  2
++         2  2  2  2  2  2  2  2  2  2  2  2  2  2  2  0  0
++         0  0  0  0  0  0  0  0  0  0  0  0  0  0  0  0  0
++         0  0  0  0  0  0  0  0  0  0  0  0  0  0  0  0  0
++         0  0  0  0  0  0  0  0  0  0  0  0  0  0  0  0  0
%c cc cc ccc ccc cccc cccc cccc cccc ccccc ccccc ccccc ccccc
%c cc cc ccc ccc cccc cccc cccc cccc ccccc ccccc ccccc ccccc
%f  0.0000000  0.000000000  0.00000000000  0.000000000000000
%f  0.0000000  0.000000000  0.00000000000  0.000000000000000
%i    0    0    0    0      0      0      0      0         0
%i    0    0    0    0      0      0      0      0         0
/*      NGA, ST. LOUIS,MO.                                  
/*   EPHEMERIS COMPUTED FROM  1 DAYS OF DATA
/*   EPOCHA SMOOTHER  
/* CCCCCCCCCCCCCCCCCCCCCCCCCCCCCCCCCCCCCCCCCCCCCCCCCCCCCCCCC
*  2012  9 16 14 20  0.00000000                                                 
P  1  11139.173928 -20860.990710 -12051.661386    273.910707                    
V  1  13111.220943  -8241.391903  26467.896616      0.015464                    
P  2 -21941.733019  12278.627208  -7567.609741    403.090396                    
V  2   4927.847619  -9433.228226 -29536.199236      0.011865                    
P  3  12839.577552  -9748.026314  20582.370395    102.404829                    
V  3   9672.490476  25679.937789   6236.944593      0.050573                    
P  4 -19887.530491   -207.619481 -18010.121898    306.238265                    
V  4  15718.253352 -15917.157401 -17122.836361      0.112544                    
P  5 -21060.351088   4548.654589  15601.611632   -352.435430                    
V  5 -18056.304229  -8438.144187 -21750.790879     -0.029935                    
P  6  15298.606138  -3713.360826  21495.373632    -31.536527                    
V  6   6826.006684  26265.662459     -3.725818     -0.085847                    
P  7  -2534.607027 -16244.167694  20826.201369    122.701186                    
V  7  20807.161980 -16271.326316 -10449.435264      0.042689                    
P  8 -14446.291611  -6743.049336  21445.385765      2.173405                    
V  8  21848.233045 -15535.468195   9297.140505      0.001393                    
P  9 -14555.892648  20644.303762  -8855.493210    185.949351                    
V  9  -8965.407285   5602.160504  29589.113459      0.025456                    
P 10 -25138.853263  -9240.538340      1.520322    -51.961461                    
V 10    732.036348  -2894.275743 -31137.126616     -0.013672                    
P 11  11435.301575 -23520.179070  -3988.393380   -303.314376                    
V 11   6909.589745  -1111.703744  29692.239790     -0.038947                    
P 12  -3867.408811  14319.245662 -22057.887452     91.218645                    
V 12 -26121.179200  -9787.345735  -1591.160948      0.020360                    
P 13  -5173.294655 -25644.501169   4083.618044    180.745925                    
V 13   1628.544739  -5537.885678 -31783.401084     -0.025664                    
P 14  13601.758254  14692.188728 -17335.041407    212.775147                    
V 14   1356.823487  22297.498826  19595.201569      0.008930                    
P 15  -6173.378778  21228.902231  14549.554148    -95.469285                    
V 15  -6521.810886 -17636.615658  23177.274484     -0.006890                    
P 16  21166.127384  -3063.475828  15945.727210   -246.136650                    
V 16  18192.969697   8616.602176 -22179.934627     -0.007697                    
P 17 -14206.563208 -14583.612289 -17003.061227     95.973152                    
V 17  -1732.007008 -21833.256085  19723.943326     -0.033580                    
P 18  15798.562881  16681.077166  14006.048218    215.241241                    
V 18 -16971.962496  -3291.712334  23354.078756      0.018154                    
P 19   9191.853233 -18995.512222  15808.034125   -304.385981                    
V 19   4234.836164  20040.462822  21917.986011     -0.035020                    
P 20    734.286115 -16251.872542 -21160.909620     68.332467                    
V 20  25684.191903   7018.258477  -4461.092782      0.008069                    
P 21   6859.699228  14956.777560  21290.535978   -250.044286                    
V 21 -20316.132519  16339.254329  -5621.589289     -0.023975                    
P 22  24534.740579  10221.319597   1848.170514    147.949009                    
V 22  -3266.787358   2828.961942  30777.980007      0.003275                    
P 23   1199.105402 -25083.530445  -7960.935836    163.933043                    
V 23   4781.450613   9604.682380 -29719.730587     -0.039107                    
P 25  10254.820066  16557.727405 -18128.314026     43.035433                    
V 25 -22136.531763  -5982.790983 -17965.768786      0.013043                    
P 26 -12739.309542   9789.386978  20452.296682   -278.728477                    
V 26  -3767.867325 -27191.851730  10702.124649      0.130827                    
P 27 -17419.066349  19259.278265  -3362.583052    431.927059                    
V 27  -5500.370685   1531.331570  32204.071526      0.041874                    
P 28 -22752.560556 -13072.698620   5348.736640    185.976818                    
V 28   6294.692352    504.230579  31093.970443      0.036997                    
P 29   4185.364807  26250.124839    524.293288    356.129050                    
V 29  -2565.895016    981.620686 -31786.830969      0.040889                    
P 30  25788.878510   2084.908962   5594.330216   -410.146200                    
V 30   6724.226613   4460.764169 -30701.582630      0.185305                    
P 31  20655.113481  -2906.558737 -16399.268220    274.782141                    
V 31 -15311.571684  14488.686322 -21366.715841      0.024820                    
P 32  10800.626408 -11625.960988 -21036.655363   -488.518897                    
V 32  24548.563646  11927.792633   6445.916367     -0.040757                    
EOF
